[{"OBJECT_NAME":"STARLINK-36236","OBJECT_ID":"2025-298D","EPOCH":"2026-03-09T22:52:09.740064","MEAN_MOTION":14.98333747,"ECCENTRICITY":0.00038974,"INCLINATION":70.0013,"RA_OF_ASC_NODE":13.9198,"ARG_OF_PERICENTER":255.8336,"MEAN_ANOMALY":104.2391,"EPHEMERIS_TYPE":0,"CLASSIFICATION_TYPE":"U","NORAD_CAT_ID":67078,"ELEMENT_SET_NO":999,"REV_AT_EPOCH":1325,"BSTAR":0.00052810907,"MEAN_MOTION_DOT":6.215e-5,"MEAN_MOTION_DDOT":0},{"OBJECT_NAME":"FENGYUN 1C DEB","OBJECT_ID":"1999-025BKG","EPOCH":"2026-03-07T13:45:43.096608","MEAN_MOTION":14.85582818,"ECCENTRICITY":0.0064954,"INCLINATION":96.5618,"RA_OF_ASC_NODE":101.964,"ARG_OF_PERICENTER":251.088,"MEAN_ANOMALY":261.3714,"EPHEMERIS_TYPE":0,"CLASSIFICATION_TYPE":"U","NORAD_CAT_ID":31202,"ELEMENT_SET_NO":999,"REV_AT_EPOCH":335,"BSTAR":0.0013766,"MEAN_MOTION_DOT":0.00012341,"MEAN_MOTION_DDOT":0}]
